IRIDIUM 126             
1 42809U 17039G   25300.81947902  .00000315  00000+0  10540-3 0  9994
2 42809  86.3927  90.7859 0002221  90.0894 270.0557 14.34216590436649
IRIDIUM 124             
1 42810U 17039H   25300.51675965  .00000633  00000+0  18204-3 0  9998
2 42810  86.4533  27.6222 0002041  91.1992 268.9443 14.43282097441550
IRIDIUM 128             
1 42811U 17039J   25300.46139132  .00000148  00000+0  45905-4 0  9994
2 42811  86.3936 122.4694 0001647  84.1847 275.9537 14.34217993436623
IRIDIUM 121             
1 42812U 17039K   25300.83850410  .00000174  00000+0  55213-4 0  9997
2 42812  86.3927  90.8040 0001889  93.0167 267.1245 14.34219447436523
IRIDIUM 133             
1 42955U 17061A   25300.49308782  .00000040  00000+0  73436-5 0  9992
2 42955  86.3937 122.5681 0002025  87.3722 272.7705 14.34216626421424
IRIDIUM 100             
1 42956U 17061B   25300.48674259  .00000013  00000+0 -22952-5 0  9995
2 42956  86.3935 122.4949 0002066  83.9988 276.1444 14.34217516421427
IRIDIUM 122             
1 42957U 17061C   25300.87364174  .00000130  00000+0  39384-4 0  9996
2 42957  86.3936 122.3326 0002058  85.5714 274.5717 14.34218114421489
IRIDIUM 129             
1 42958U 17061D   25300.48040022  .00000043  00000+0  84216-5 0  9995
2 42958  86.3937 122.5616 0002427  93.1319 267.0154 14.34217713421443
